IRIDIUM 122             
1 42957U 17061C   25135.52225382  .00000002  00000+0 -62412-5 0  9999
2 42957  86.4021 191.3627 0002227  98.0621 262.0828 14.34217747397780
IRIDIUM 129             
1 42958U 17061D   25135.54762091  .00000291  00000+0  96725-4 0  9997
2 42958  86.4020 191.4145 0001932  89.2359 270.9058 14.34216389397805
IRIDIUM 119             
1 42959U 17061E   25135.58570112  .00000257  00000+0  84885-4 0  9999
2 42959  86.4018 191.3930 0002137 100.0063 260.1374 14.34213922397820
IRIDIUM 107             
1 42960U 17061F   25135.53493955  .00000062  00000+0  15132-4 0  9998
2 42960  86.4020 191.4331 0002534 105.2386 254.9090 14.34217878397838
IRIDIUM 132             
1 42961U 17061G   25135.61105040  .00000037  00000+0  61928-5 0  9990
2 42961  86.4018 191.3837 0002368  97.3984 262.7481 14.34217906397839
IRIDIUM 136             
1 42962U 17061H   25136.20091122 -.00000015  00000+0 -12493-4 0  9992
2 42962  86.4021 191.1421 0002104 100.6059 259.5374 14.34217583397937
IRIDIUM 139             
1 42963U 17061J   25136.20725408  .00000130  00000+0  39446-4 0  9997
2 42963  86.4018 191.1948 0002475  99.7743 260.3732 14.34217544397943
IRIDIUM 125             
1 42964U 17061K   25135.56664889  .00000234  00000+0  76558-4 0  9991
2 42964  86.4023 191.5158 0002073 109.6989 250.4430 14.34216424397866
IRIDIUM 135             
1 43070U 17083A   25136.02915654  .00000015  00000+0 -15959-5 0  9992
2 43070  86.3946 128.0614 0002315  83.0773 277.0686 14.34217490387226
IRIDIUM 138             
1 43071U 17083B   25136.05452618 -.00000019  00000+0 -14017-4 0  9990
2 43071  86.3935 127.7258 0001662  90.3283 269.8103 14.34217368387212
IRIDIUM 116             
1 43072U 17083C   25135.53443560  .00000013  00000+0 -25226-5 0  9997
2 43072  86.3941 128.2590 0002609  87.6044 272.5451 14.34217681387171
